OBJECT_NAME,OBJECT_ID,EPOCH,MEAN_MOTION,ECCENTRICITY,INCLINATION,RA_OF_ASC_NODE,ARG_OF_PERICENTER,MEAN_ANOMALY,EPHEMERIS_TYPE,CLASSIFICATION_TYPE,NORAD_CAT_ID,ELEMENT_SET_NO,REV_AT_EPOCH,BSTAR,MEAN_MOTION_DOT,MEAN_MOTION_DDOT
FORMOSAT 7-1,2019-036L,2026-07-02T15:34:45.568128,14.96573842,.0000887,23.9985,288.1529,27.3698,332.6849,0,U,44349,999,38697,.23869E-3,.3086E-4,0
FORMOSAT 7-4,2019-036M,2026-07-02T19:19:16.103136,14.96567608,.0001319,23.9999,349.2061,27.9811,332.0760,0,U,44350,999,38641,.25853E-3,.3317E-4,0
FORMOSAT 7-2,2019-036N,2026-07-02T19:51:27.169056,14.96565666,.0000744,23.9995,43.3689,34.3966,325.6583,0,U,44351,999,38593,.2683E-3,.3431E-4,0
FORMOSAT 7-6,2019-036Q,2026-07-02T11:50:51.124128,14.96572305,.000063,23.9967,226.4357,283.6953,76.3478,0,U,44353,999,38411,.20418E-3,.2684E-4,0
FORMOSAT 7-5,2019-036V,2026-07-02T14:30:08.140032,14.96549666,.0000423,23.9964,164.4362,59.9486,300.1057,0,U,44358,999,38466,.14627E-3,.2007E-4,0
METEOR-M2 2,2019-038A,2026-07-02T21:49:44.555808,14.24369324,.0001397,98.9148,171.4273,25.1865,334.9381,0,U,44387,999,36353,-.64877E-4,-.196E-5,0
GLOBAL-4,2019-054E,2026-07-02T09:30:18.268992,15.65794716,.0003949,45.0045,148.5536,92.2858,267.8492,0,U,44499,999,38274,.55266E-3,.57474E-3,0
ZY-1 02D,2019-059A,2026-07-02T21:25:31.370880,14.35264976,.0003752,98.6719,245.3886,343.6997,16.4067,0,U,44528,999,35659,.14931E-4,-.2E-7,0
TAURUS-1 (JINNIUZUO 1),2019-059C,2026-07-02T19:22:26.372352,14.72259319,.0007353,98.6426,349.6062,258.8864,101.1515,0,U,44530,999,36094,.10532E-2,.6602E-4,0
ZHUHAI-1 03B,2019-060C,2026-07-02T21:21:28.776096,15.54982979,.0007654,97.5544,342.5134,252.8530,107.1886,0,U,44536,999,37876,.45329E-3,.30372E-3,0
ZHUHAI-1 03D,2019-060E,2026-07-02T20:16:50.880576,15.50671113,.0006859,97.5400,334.4508,237.5998,122.4590,0,U,44538,999,37850,.59204E-3,.34002E-3,0
ZHUHAI-1 03E,2019-060F,2026-07-02T21:21:16.826976,15.41572833,.0004748,97.5633,334.3878,332.9232,27.1766,0,U,44539,999,37818,.45103E-3,.18894E-3,0
GAOFEN-7,2019-072A,2026-07-02T20:28:47.513280,15.21378417,.0017124,97.2418,244.7286,347.2438,12.8363,0,U,44703,999,37002,.21174E-3,.4698E-4,0
JILIN-1 GAOFEN 2A,2019-075A,2026-07-02T19:11:26.196000,15.39732042,.0006398,97.4966,267.9583,39.3504,320.8206,0,U,44777,999,36728,.37656E-3,.14827E-3,0
NINGXIA-1 1,2019-076A,2026-07-02T20:35:54.705984,14.02040464,.0011523,45.0052,109.8196,235.6019,124.3726,0,U,44779,999,34005,.61727E-4,-.35E-6,0
NINGXIA-1 5,2019-076E,2026-07-02T20:54:16.657632,14.02088501,.0011142,45.0049,109.0984,226.6639,133.3267,0,U,44783,999,33997,.78771E-4,-.8E-7,0
KL-ALPHA A,2019-077A,2026-07-02T20:05:22.517088,13.56044491,.0013228,88.9236,220.8535,67.7562,292.4994,0,U,44785,999,32785,.42219E-4,.42E-6,0
CARTOSAT-3,2019-081A,2026-07-02T21:34:11.785728,15.19249982,.0013417,97.4296,245.5127,98.8723,261.4031,0,U,44804,999,36585,.19207E-3,.3989E-4,0
JILIN-1 GAOFEN 2B,2019-086A,2026-07-02T19:22:01.049376,15.20883356,.0012497,97.4876,255.7011,263.2099,96.7714,0,U,44836,999,36286,.36167E-3,.7941E-4,0
TIANQIN 1 (CAS-6),2019-093A,2026-07-02T19:30:50.436000,14.95507829,.0011285,97.7809,267.5411,8.6102,351.5310,0,U,44879,999,35438,.14849E-3,.1588E-4,0
ETRSS-1,2019-093B,2026-07-02T19:34:05.392416,14.95950199,.0011446,97.7826,268.0163,8.5856,351.5558,0,U,44880,999,35439,.21748E-3,.238E-4,0
TIANYAN 01,2019-093C,2026-07-02T20:42:50.460192,14.86541982,.0014566,97.7530,255.7128,40.1396,320.0893,0,U,44881,999,35374,.36097E-4,.267E-5,0
TIANYAN 02,2019-093D,2026-07-02T19:22:15.480768,15.05412208,.0012809,97.7946,278.7482,334.2675,25.7912,0,U,44882,999,35496,.53633E-3,.7647E-4,0
CBERS 4A,2019-093E,2026-07-02T19:51:35.262144,14.81427474,.0000723,98.0188,251.2808,128.4613,231.6664,0,U,44883,999,35339,.18184E-3,.1369E-4,0
WEILAI 1R,2019-093F,2026-07-02T20:34:01.285248,15.00776470,.0016917,97.7879,273.7688,348.8852,11.1995,0,U,44884,999,35477,.32904E-3,.4126E-4,0
FLORIPASAT-1,2019-093G,2026-07-02T20:39:23.572800,15.04045045,.0011877,97.7944,278.2071,24.7477,335.4316,0,U,44885,999,35500,.40179E-3,.5504E-4,0
SHUNTIAN,2019-093H,2026-07-02T20:49:46.669728,14.95236756,.0012098,97.8018,271.9493,21.3287,338.8436,0,U,44886,999,35452,.36818E-3,.3997E-4,0
