FORMOSAT 7-1            
1 44349U 19036L   26183.64913852  .00003086  00000+0  23869-3 0  9998
2 44349  23.9985 288.1529 0000887  27.3698 332.6849 14.96573842386972
FORMOSAT 7-4            
1 44350U 19036M   26183.80504749  .00003317  00000+0  25853-3 0  9991
2 44350  23.9999 349.2061 0001319  27.9811 332.0760 14.96567608386411
FORMOSAT 7-2            
1 44351U 19036N   26183.82739779  .00003431  00000+0  26830-3 0  9990
2 44351  23.9995  43.3689 0000744  34.3966 325.6583 14.96565666385939
FORMOSAT 7-6            
1 44353U 19036Q   26183.49364727  .00002684  00000+0  20418-3 0  9997
2 44353  23.9967 226.4357 0000630 283.6953  76.3478 14.96572305384115
FORMOSAT 7-5            
1 44358U 19036V   26183.60426088  .00002007  00000+0  14627-3 0  9998
2 44358  23.9964 164.4362 0000423  59.9486 300.1057 14.96549666384664
METEOR-M2 2             
1 44387U 19038A   26183.90954347 -.00000196  00000+0 -64877-4 0  9991
2 44387  98.9148 171.4273 0001397  25.1865 334.9381 14.24369324363538
GLOBAL-4                
1 44499U 19054E   26183.39604478  .00057474  00000+0  55266-3 0  9993
2 44499  45.0045 148.5536 0003949  92.2858 267.8492 15.65794716382744
ZY-1 02D                
1 44528U 19059A   26183.89272420 -.00000002  00000+0  14931-4 0  9995
2 44528  98.6719 245.3886 0003752 343.6997  16.4067 14.35264976356598
TAURUS-1 (JINNIUZUO 1)  
1 44530U 19059C   26183.80724968  .00006602  00000+0  10532-2 0  9990
2 44530  98.6426 349.6062 0007353 258.8864 101.1515 14.72259319360941
ZHUHAI-1 03B            
1 44536U 19060C   26183.88991639  .00030372  00000+0  45329-3 0  9991
2 44536  97.5544 342.5134 0007654 252.8530 107.1886 15.54982979378768
ZHUHAI-1 03D            
1 44538U 19060E   26183.84503334  .00034002  00000+0  59204-3 0  9991
2 44538  97.5400 334.4508 0006859 237.5998 122.4590 15.50671113378505
ZHUHAI-1 03E            
1 44539U 19060F   26183.88977809  .00018894  00000+0  45103-3 0  9992
2 44539  97.5633 334.3878 0004748 332.9232  27.1766 15.41572833378188
GAOFEN-7                
1 44703U 19072A   26183.85332770  .00004698  00000+0  21174-3 0  9996
2 44703  97.2418 244.7286 0017124 347.2438  12.8363 15.21378417370024
JILIN-1 GAOFEN 2A       
1 44777U 19075A   26183.79960875  .00014827  00000+0  37656-3 0  9993
2 44777  97.4966 267.9583 0006398  39.3504 320.8206 15.39732042367285
NINGXIA-1 1             
1 44779U 19076A   26183.85827206 -.00000035  00000+0  61727-4 0  9997
2 44779  45.0052 109.8196 0011523 235.6019 124.3726 14.02040464340053
NINGXIA-1 5             
1 44783U 19076E   26183.87102613 -.00000008  00000+0  78771-4 0  9999
2 44783  45.0049 109.0984 0011142 226.6639 133.3267 14.02088501339979
KL-ALPHA A              
1 44785U 19077A   26183.83706617  .00000042  00000+0  42219-4 0  9997
2 44785  88.9236 220.8535 0013228  67.7562 292.4994 13.56044491327851
CARTOSAT-3              
1 44804U 19081A   26183.89874752  .00003989  00000+0  19207-3 0  9999
2 44804  97.4296 245.5127 0013417  98.8723 261.4031 15.19249982365852
JILIN-1 GAOFEN 2B       
1 44836U 19086A   26183.80695659  .00007941  00000+0  36167-3 0  9993
2 44836  97.4876 255.7011 0012497 263.2099  96.7714 15.20883356362863
TIANQIN 1 (CAS-6)       
1 44879U 19093A   26183.81308375  .00001588  00000+0  14849-3 0  9999
2 44879  97.7809 267.5411 0011285   8.6102 351.5310 14.95507829354385
ETRSS-1                 
1 44880U 19093B   26183.81534019  .00002380  00000+0  21748-3 0  9994
2 44880  97.7826 268.0163 0011446   8.5856 351.5558 14.95950199354397
TIANYAN 01              
1 44881U 19093C   26183.86308403  .00000267  00000+0  36097-4 0  9992
2 44881  97.7530 255.7128 0014566  40.1396 320.0893 14.86541982353748
TIANYAN 02              
1 44882U 19093D   26183.80712362  .00007647  00000+0  53633-3 0  9993
2 44882  97.7946 278.7482 0012809 334.2675  25.7912 15.05412208354969
CBERS 4A                
1 44883U 19093E   26183.82749146  .00001369  00000+0  18184-3 0  9993
2 44883  98.0188 251.2808 0000723 128.4613 231.6664 14.81427474353399
WEILAI 1R               
1 44884U 19093F   26183.85695932  .00004126  00000+0  32904-3 0  9990
2 44884  97.7879 273.7688 0016917 348.8852  11.1995 15.00776470354779
FLORIPASAT-1            
1 44885U 19093G   26183.86068950  .00005504  00000+0  40179-3 0  9990
2 44885  97.7944 278.2071 0011877  24.7477 335.4316 15.04045045355009
SHUNTIAN                
1 44886U 19093H   26183.86790127  .00003997  00000+0  36818-3 0  9998
2 44886  97.8018 271.9493 0012098  21.3287 338.8436 14.95236756354525
